#dP2024  3 27  0  0  0.00000000      96 __u+U IGS20 EXT  IAC
## 2307 259200.00000000   900.00000000 60396 0.0000000000000
+  120   C06C07C08C09C10C11C12C13C14C16C19C20C21C22C23C24C25
+        C26C27C28C29C30C32C33C34C35C36C37C38C39C40C41C42C43
+        C44C45C46E02E03E04E05E07E08E09E10E11E12E13E14E15E18
+        E19E21E24E25E26E27E30E31E33E34E36G01G02G03G04G05G06
+        G07G08G09G10G11G12G13G14G15G16G17G18G19G20G21G22G23
+        G24G25G26G27G28G29G30G31G32J02J03J04R01R02R03R04R05
+        R07R08R09R11R12R13R14R15R16R17R18R19R20R21R22R24R25
+        R26  0  0  0  0  0  0  0  0  0  0  0  0  0  0  0  0
++        11  9 10 10  8  8  9 10  8 11  9  7  8  8  9  7  9
++         9  8  8  8  7  8  9 10 10  9  9  9 11  9  8  9  8
++         9  8  7  8  7  7  7  7  7  7  8  8  8  9  7  9  8
++         8  8  7  8  9  7 10  8  8  7  8 11  8  8  7  7 10
++         7  7  6  6 10  8  8  7  6  7  7  8  7  7  7  7  7
++         7  8  7  7  8  7  7  8  6  9  9  0  8  7  9  6  7
++         8  8  9  7  8  8  8  7  7  8  7  9 10  6  8  6  8
++         8  0  0  0  0  0  0  0  0  0  0  0  0  0  0  0  0
%c M  cc GPS ccc cccc cccc cccc cccc ccccc ccccc ccccc ccccc
%c cc cc ccc ccc cccc cccc cccc cccc ccccc ccccc ccccc ccccc
%f  0.0000000  0.000000000  0.00000000000  0.000000000000000
%f  0.0000000  0.000000000  0.00000000000  0.000000000000000
%i    0    0    0    0      0      0      0      0         0
%i    0    0    0    0      0      0      0      0         0
/* IAC                                ULTRA-RAPID PREDICTION
/* S/V CLOCKS ARE ALIGNED TO GNSS TIME                      
/* G:C1WC2W R:C1PC2P E:C1XC5X C:C2IC6I J:C1CC2S             
/* PCV:IGS20_2290 OL/AL:FES2004  NONE     YN ORB:CoN CLK:CoN
*  2024 03 27 16 45  0.00000000
PC06  -7586.939089  41056.747796   7008.783528    302.770180
PC07  -7360.535073  26855.918775 -31560.409549   -875.873976
PC08 -20626.608862  26978.448545  24848.594141     26.288183
PC09  -4985.884338  42213.981108    634.251162   -679.457524
PC10   1467.690979  29192.582287 -29924.377592     26.970848
PC11 -12742.678752  10353.980290 -22499.502032    481.581794
PC12 -16557.252381 -11045.491384 -19523.718487   -221.228259
PC13 -11921.599242  27651.321226  29553.607050    427.617408
PC14 -22475.945012   5654.658801  15607.851899    503.967005
PC16 -10613.043369  39287.468607  11971.825985   -421.762457
PC19  14376.768067 -11245.642580 -21069.988569   -916.949534
PC20  26314.847663   -212.549882  -9214.398523   -299.510095
PC21 -23379.440947 -12030.900672  -9376.948863   -961.702159
PC22  -6556.325746 -16505.719753 -21530.093304    -59.751187
PC23  -4565.188578  22148.219162 -16350.084004   -775.655006
PC24 -22029.706421   7098.890733  15557.165573    949.090650
PC25 -18076.657228  21227.778572   -898.412338    359.976060
PC26 -12905.775528  -9985.223650  22617.899327   -268.783663
PC27  15318.550054  19159.964567  13294.616756    290.640115
PC28   6584.259260  27057.004030  -1850.425163    221.897469
PC29   7442.118218 -19258.099817  18763.866248    260.242960
PC30  16778.446331    715.067102  22279.704398    -45.213653
PC32  23369.817469  11914.565678   9511.887251   -590.587900
PC33 -14447.656080  11321.701371  21035.432475   -963.082888
PC34 -16412.603168   1151.425559 -22552.607750    399.322418
PC35  -7460.908327 -26789.705684   2025.231309    401.165798
PC36  18723.450695 -20691.586738    613.521846     32.315836
PC37  12459.387081  10530.709924 -22635.854725   -949.742893
PC38 -25673.499688  28347.734173  17661.136686    145.344575
PC39 -11623.921798  36736.383021  17452.818299     -7.734381
PC40 -11114.457877  20755.961017 -34976.483738    -62.710010
PC41   5585.516995  16506.074049  21850.824498   -913.236152
PC42 -26828.974074   -800.967118   7750.927813   -445.056916
PC43  -8170.787765  18543.546736 -19210.172324     65.746972
PC44 -16101.553848 -18606.396223 -13149.159991    425.953730
PC45   4659.007887 -22066.285707  16443.604159    -77.628322
PC46  22178.841623  -7882.778490 -15029.203971   -135.096465
PE02  -3167.892538 -16508.056755  24353.706071    114.640019
PE03 -11334.549902 -24495.755536 -12164.023384   -103.190066
PE04  22835.593493  17663.818173  -6514.923392   -359.574484
PE05   6602.995618 -16872.897548 -23398.037699   4733.015406
PE07 -20990.077447  -1041.910138  20859.528783   -111.263737
PE08 -22625.261316 -18183.383238   5840.179342   -245.579991
PE09  20933.793889   1219.613722 -20878.056904   -385.697618
PE10  16165.921380   1393.018546  24750.297968   -612.553297
PE11  17606.294108 -10483.327181  21341.963869   3122.021450
PE12  12591.182052  11874.463696  24014.371703   -967.398663
PE13 -17544.983521   9858.704526 -21708.965397    -20.725976
PE14   7648.411076  21941.135322 -10336.749074     78.397535
PE15 -12273.685451 -12378.650883 -23914.896726    -93.649078
PE18 -20745.315005 -23835.353851   -397.139872    483.424712
PE19   9451.827875  24333.269102  13967.330706   -353.826332
PE21 -17515.071525  16348.044188 -17387.659077   -586.140555
PE24  28939.124497  -6268.052679   -414.222408   -674.536046
PE25  17900.273940 -16231.470723  17098.198030      2.628390
PE26 -12219.052445  26232.293561  -6241.579697    408.645563
PE27 -28848.364711   6604.725847     46.509575   -309.366172
PE30 -22894.633737  -7131.508570  17328.617854   -137.931795
PE31  23045.445747   6915.117920 -17245.612191    -19.310887
PE33   -489.746819  27230.210336  11603.078509      9.607223
PE34     60.083086 -27026.751633 -12074.747393   -102.333157
PE36  12480.686322 -25936.072612   6871.200514   -205.098230
PG01  11026.565277 -23127.630728   5957.323213    176.306525
PG02  14213.961238 -16085.427673  15947.857988   -463.350292
PG03  21199.699466 -12389.209881 -10114.660657    276.883452
PG04  12011.340606  -9267.600273 -21789.239915    324.925638
PG05 -25821.409301   5269.664843  -3851.666092   -166.955833
PG06  -7469.579576 -17518.263285 -18398.308622    349.294462
PG07   4571.113255 -25729.176910   3473.205300    -93.929054
PG08  18547.224582   -982.967216  19036.112008     84.075008
PG09   -800.658760 -18994.783312 -18604.178466    139.314184
PG10   9954.226431  12288.662270  21600.001414     -3.066415
PG11 -14132.965862  -5281.937787 -21836.239440   -619.376870
PG12 -22505.169942  10782.996719  -9290.673733   -491.111494
PG13 -19711.668145  -9193.436471  15195.358033    637.755990
PG14  -5564.873772 -14619.886527  21501.126751    361.299667
PG15 -18405.255715   3244.992301  18453.450613    142.110956
PG16  25620.886198   1378.678943  -8057.661456   -331.181012
PG17 -10893.819232 -22389.590647   9437.547820    712.003280
PG18  -4799.733549  25711.607602   4003.246580   -583.641189
PG19 -16928.417421 -20728.972734   -519.601359    459.872118
PG20 -21909.761618  -1511.135601 -14766.150458    382.373606
PG21  15408.304120 -10251.647130  19117.282054    129.677036
PG22 -13278.918523 -11944.504314  19989.810526      9.478969
PG23  -3894.182633  15822.557976  20957.315282    186.843817
PG24 -14648.698711  14503.031755  16106.733844   -451.992083
PG25 -13616.193856  15971.078943 -16457.891650    492.371938
PG26  19032.524887   7139.333339 -17427.165927    174.357407
PG27  21672.258278  10674.714014  11229.173914    -14.779772
PG28   6999.444301  19704.528483 -16394.521738   -180.230569
PG29  -2655.792059  17666.588828 -19671.411562   -603.666207
PG30  -3307.714027 -23012.360714  12729.786811   -413.818502
PG31  12644.590853  10091.505564 -21211.230833   -228.016750
PG32  14713.488281  21272.650924   6698.401618   -617.010171
PJ02 -34166.770974  16783.933374 -13448.268240     -3.371012
PJ03 -21729.817108  30139.702183 -15289.309373     -0.150246
PJ04 -27116.821375  26907.621426  23745.611664     50.589344
PR01 -22167.984859  -2589.913097  12373.589123     80.834737
PR02  -9478.176020   7295.738950  22572.323777    -22.635040
PR03   8480.178349  13830.712605  19757.393119     97.143882
PR04  21219.933444  12700.833397   6310.942189    229.423198
PR05  22703.805062   4867.415981 -10566.309142    129.070728
PR07  -9295.288727 -13910.886683 -19189.081810     78.894155
PR08 -21450.118056 -12418.371711  -5895.710405    -74.877444
PR09  17549.564561 -17519.391932   5812.425590    177.711048
PR11  -9840.947231  -6078.046692  22743.714647     29.880258
PR12 -20909.061262   8543.133878  11859.879364     38.304988
PR13 -19037.660211  16636.341291  -3391.006096    -45.700056
PR14  -4814.882366  15607.765377 -19592.183662     26.276600
PR15  11118.059839   5120.090487 -22363.741748     81.010909
PR16  20746.939492  -8534.204899 -12103.197617     24.342171
PR17   2858.485894  25327.755318    373.998396     72.726874
PR18   8850.704340  18035.390008  15766.880626    134.251259
PR19  10491.127876   3578.589232  22971.402307   -270.924777
PR20   6372.947361 -18090.600878  16794.997204   -110.437816
PR21  -2685.449336 -25372.761327   -449.306362    -87.918373
PR22  -8939.708752 -17317.963695 -16422.747513    114.734151
PR24  -5694.627543  18850.067883 -16195.755080    -49.446372
PR25  -1917.880439 -25438.381848   -556.996806    -25.373348
PR26 -21024.034561 -12635.873130  -7019.784326    -28.045501
EOF
